#aV2013  8 22  0  0  0.00000000     288 DD+AD WGS84 FIT  NGA
## 1754 345600.00000000   300.00000000 56526 0.0000000000000
+   31     1  2  3  4  5  6  7  8  9 10 11 12 13 14 15 16 17
+         18 19 20 21 22 23 24 25 26 27 28 29 31 32  0  0  0
+          0  0  0  0  0  0  0  0  0  0  0  0  0  0  0  0  0
+          0  0  0  0  0  0  0  0  0  0  0  0  0  0  0  0  0
+          0  0  0  0  0  0  0  0  0  0  0  0  0  0  0  0  0
++         2  2  2  2  2  2  2  2  2  2  2  2  2  2  2  2  2
++         2  2  2  2  2  2  2  2  2  2  2  2  2  2  2  0  0
++         0  0  0  0  0  0  0  0  0  0  0  0  0  0  0  0  0
++         0  0  0  0  0  0  0  0  0  0  0  0  0  0  0  0  0
++         0  0  0  0  0  0  0  0  0  0  0  0  0  0  0  0  0
%c cc cc ccc ccc cccc cccc cccc cccc ccccc ccccc ccccc ccccc
%c cc cc ccc ccc cccc cccc cccc cccc ccccc ccccc ccccc ccccc
%f  0.0000000  0.000000000  0.00000000000  0.000000000000000
%f  0.0000000  0.000000000  0.00000000000  0.000000000000000
%i    0    0    0    0      0      0      0      0         0
%i    0    0    0    0      0      0      0      0         0
/*      NGA, ST. LOUIS,MO.                                  
/*   EPHEMERIS COMPUTED FROM  1 DAYS OF DATA
/*   EPOCHA SMOOTHER  
/* CCCCCCCCCCCCCCCCCCCCCCCCCCCCCCCCCCCCCCCCCCCCCCCCCCCCCCCCC
*  2013  8 22 13 25  0.00000000                                                 
P  1  -2650.019569 -15044.815481 -21747.528860     66.078535                    
V  1  26571.926195  -7319.949712   1927.587961      0.044934                    
P  2 -19959.920265  13962.640878  10174.681826    447.741826                    
V  2 -13247.822631    519.199190 -27807.855753      0.017821                    
P  3   8550.828017 -23408.066379   8363.622413    249.468505                    
V  3   2451.138063  11749.884696  28766.712074      0.049909                    
P  4 -25926.009633   6254.399945  -1708.201396    306.827803                    
V  4    826.252004  -3648.694473 -30979.517604      0.102470                    
P  5  -9079.646281  12661.140163  21475.824435   -399.604891                    
V  5 -19983.406836 -18731.796180   2737.538435     -0.001298                    
P  6  13439.937820 -18178.075747  13696.406664     15.060422                    
V  6   -302.868062  17716.340978  24297.143214      0.195511                    
P  7 -18338.432734  -7657.811098  17830.048704    250.177426                    
V  7  21335.542238  -6850.326863  18746.863272      0.042226                    
P  8 -25181.115288  -1898.854830   9304.227072      8.084333                    
V  8  11100.500342  -2829.791569  29267.666503      0.001710                    
P  9 -24810.873534    865.860455   9068.581459    263.066895                    
V  9  11206.479925  -5233.863833  29319.653044      0.027319                    
P 10 -20518.674184  -3664.115122  16395.509906    -91.590794                    
V 10 -13638.664344 -16451.543315 -19957.330687     -0.015023                    
P 11   3405.449804 -19607.761407 -17941.097383   -412.623883                    
V 11  20047.394578 -10031.624549  15423.318038     -0.036246                    
P 12   6875.723249  21155.661596 -14717.886255    151.972516                    
V 12 -13844.192414 -12312.822541 -24042.377182      0.021677                    
P 13  -7721.262845 -16450.548088  19187.270531     87.538057                    
V 13   9490.318547 -22770.723506 -15733.641296     -0.037629                    
P 14  16031.736113  -3958.444531 -20557.556984    217.463243                    
V 14  -7415.855913  25546.705715 -10743.972716     -0.006860                    
P 15  -1792.077269  25859.883162  -5135.026645   -133.413130                    
V 15  -4921.713825   5637.353274  30526.147236     -0.018160                    
P 16   9314.161390 -11434.616453  22039.868829   -248.194621                    
V 16  19328.925286  20276.482373   2673.011563      0.006813                    
P 17 -15709.591259   1796.028536 -21080.480808    -13.774068                    
V 17   6964.757896 -26422.686287  -7595.348703     -0.037964                    
P 18  20841.965267  16260.863314  -3643.355470    270.089505                    
V 18   1199.691004   6127.970919  30305.255192      0.019887                    
P 19   7687.309635 -25138.212530  -1534.976791   -398.464613                    
V 19   3531.663905   -710.927071  32014.670957     -0.028641                    
P 20 -12171.885780 -21158.372160 -10732.446080    117.345271                    
V 20  12270.546351   6323.731278 -26744.055120      0.024796                    
P 21  21235.446735   6015.377598  15709.373087   -314.863097                    
V 21 -17490.892706   7190.209748  21193.299465     -0.019231                    
P 22  21648.846019   6290.946500 -13953.226516    181.198627                    
V 22  10970.732952  14692.981612  23159.243774      0.019082                    
P 23  -2620.539570 -23394.888367  11974.451440     55.191376                    
V 23   6572.149848 -14026.586316 -26555.341878     -0.034986                    
P 24  -1838.005545  15999.804961 -21121.482004    -12.308438                    
V 24 -25913.124143   6929.683682   7551.746234     -0.006733                    
P 25  17544.633582  19765.722252  -3194.652709    138.499385                    
V 25  -4457.256118  -1074.401509 -31631.015861      0.045484                    
P 26 -12822.630268  21686.439927   7227.773252    154.117054                    
V 26    971.863060 -10376.459083  30520.613777      0.175732                    
P 27  12483.263513 -21150.521235  10089.368646    -27.121059                    
V 27   -631.794415  13059.794334  28139.589231     -0.047910                    
P 28 -20844.318093 -11125.186777 -11716.499448    286.265569                    
V 28  -9310.904545 -12771.592501  27170.871544      0.031633                    
P 29   7031.915314  18662.391641  17602.926918    464.304699                    
V 29  -7918.073870  20838.578271 -18932.673086      0.032480                    
P 31  25831.947356  -6813.776208    206.813914    324.072048                    
V 31    542.865632   1881.288166 -31995.095326      0.008866                    
P 32  -2393.431070 -20800.973326 -16524.325399   -553.518321                    
V 32  15150.780118  14697.586306 -20024.130346      0.020680                    
EOF
